$$SOE
2461295.500000000, A.D. 2026-Sep-12 00:00:00.0000, -3.888734437223537E+08, -1.767074271092285E+08, 8.411345553282087E+07,
2461302.500000000, A.D. 2026-Sep-19 00:00:00.0000, -3.840028359147828E+08, -1.862681790982221E+08, 8.363302555774742E+07,
2461309.500000000, A.D. 2026-Sep-26 00:00:00.0000, -3.789056190279773E+08, -1.957189962550331E+08, 8.310323885562748E+07,
2461316.500000000, A.D. 2026-Oct-03 00:00:00.0000, -3.735841501807919E+08, -2.050539681753950E+08, 8.252426531036942E+07,
2461323.500000000, A.D. 2026-Oct-10 00:00:00.0000, -3.680409475096370E+08, -2.142672268120192E+08, 8.189630818160853E+07,
2461330.500000000, A.D. 2026-Oct-17 00:00:00.0000, -3.622786899475397E+08, -2.233529516188427E+08, 8.121960431092796E+07,
2461337.500000000, A.D. 2026-Oct-24 00:00:00.0000, -3.563002168256252E+08, -2.323053748342237E+08, 8.049442428599931E+07,
2461344.500000000, A.D. 2026-Oct-31 00:00:00.0000, -3.501085271940649E+08, -2.411187869614933E+08, 7.972107254704399E+07,
2461351.500000000, A.D. 2026-Nov-07 00:00:00.0000, -3.437067785196088E+08, -2.497875423642155E+08, 7.889988740956333E+07,
2461358.500000000, A.D. 2026-Nov-14 00:00:00.0000, -3.370982845552388E+08, -2.583060640796481E+08, 7.803124105645877E+07,
2461365.500000000, A.D. 2026-Nov-21 00:00:00.0000, -3.302865141899551E+08, -2.666688471590300E+08, 7.711553972036719E+07,
2461372.500000000, A.D. 2026-Nov-28 00:00:00.0000, -3.232750922735972E+08, -2.748704635339754E+08, 7.615322390105885E+07,
2461379.500000000, A.D. 2026-Dec-05 00:00:00.0000, -3.160677987960860E+08, -2.829055690571613E+08, 7.514476823214400E+07,
2461386.500000000, A.D. 2026-Dec-12 00:00:00.0000, -3.086685662559858E+08, -2.907689095965728E+08, 7.409068123619437E+07,
2461393.500000000, A.D. 2026-Dec-19 00:00:00.0000, -3.010814771045029E+08, -2.984553261655807E+08, 7.299150514134201E+07,
2461400.500000000, A.D. 2026-Dec-26 00:00:00.0000, -2.933107614057948E+08, -3.059597599458860E+08, 7.184781570065586E+07,
2461407.500000000, A.D. 2027-Jan-02 00:00:00.0000, -2.853607944371791E+08, -3.132772573843257E+08, 7.066022197280416E+07,
2461414.500000000, A.D. 2027-Jan-09 00:00:00.0000, -2.772360941134742E+08, -3.204029753340679E+08, 6.942936605478424E+07,
2461421.500000000, A.D. 2027-Jan-16 00:00:00.0000, -2.689413182028818E+08, -3.273321862218388E+08, 6.815592276430090E+07,
2461428.500000000, A.D. 2027-Jan-23 00:00:00.0000, -2.604812612920960E+08, -3.340602832708916E+08, 6.684059926444495E+07,
2461435.500000000, A.D. 2027-Jan-30 00:00:00.0000, -2.518608513172282E+08, -3.405827858174891E+08, 6.548413460964425E+07,
2461442.500000000, A.D. 2027-Feb-06 00:00:00.0000, -2.430851452408627E+08, -3.468953443708772E+08, 6.408729920187622E+07,
2461449.500000000, A.D. 2027-Feb-13 00:00:00.0000, -2.341593243412302E+08, -3.529937441866497E+08, 6.265089429918516E+07,
2461456.500000000, A.D. 2027-Feb-20 00:00:00.0000, -2.250886914829349E+08, -3.588739081333537E+08, 6.117575172859249E+07,
2461463.500000000, A.D. 2027-Feb-27 00:00:00.0000, -2.158786689789357E+08, -3.645319020552842E+08, 5.966273341269186E+07,
2461470.500000000, A.D. 2027-Mar-06 00:00:00.0000, -2.065347940321280E+08, -3.699639406984977E+08, 5.811273059046355E+07,
2461477.500000000, A.D. 2027-Mar-13 00:00:00.0000, -1.970627133626829E+08, -3.751663921390620E+08, 5.652666304661898E+07,
2461484.500000000, A.D. 2027-Mar-20 00:00:00.0000, -1.874681781551567E+08, -3.801357815369124E+08, 5.490547838478768E+07,
2461491.500000000, A.D. 2027-Mar-27 00:00:00.0000, -1.777570391279940E+08, -3.848687947551858E+08, 5.325015128159876E+07,
2461498.500000000, A.D. 2027-Apr-03 00:00:00.0000, -1.679352415287592E+08, -3.893622818860846E+08, 5.156168270035134E+07,
2461505.500000000, A.D. 2027-Apr-10 00:00:00.0000, -1.580088200023437E+08, -3.936132606547652E+08, 4.984109906236164E+07,
2461512.500000000, A.D. 2027-Apr-17 00:00:00.0000, -1.479838933203248E+08, -3.976189197099091E+08, 4.808945137480555E+07,
2461519.500000000, A.D. 2027-Apr-24 00:00:00.0000, -1.378666589031030E+08, -4.013766218565571E+08, 4.630781430453683E+07,
2461526.500000000, A.D. 2027-May-01 00:00:00.0000, -1.276633868458012E+08, -4.048839071963417E+08, 4.449728517425554E+07,
2461533.500000000, A.D. 2027-May-08 00:00:00.0000, -1.173804131509546E+08, -4.081384954197779E+08, 4.265898291547446E+07,
2461540.500000000, A.D. 2027-May-15 00:00:00.0000, -1.070241336752422E+08, -4.111382862902361E+08, 4.079404719490190E+07,
2461547.500000000, A.D. 2027-May-22 00:00:00.0000, -9.660100036405559E+07, -4.138813609044161E+08, 3.890363764719437E+07,
2461554.500000000, A.D. 2027-May-29 00:00:00.0000, -8.611751642800574E+07, -4.163659851927822E+08, 3.698893278793249E+07,
2461561.500000000, A.D. 2027-Jun-05 00:00:00.0000, -7.558022958784558E+07, -4.185906125250454E+08, 3.505112878369974E+07,
2461568.500000000, A.D. 2027-Jun-12 00:00:00.0000, -6.499572540725066E+07, -4.205538849852073E+08, 3.309143830076611E+07,
2461575.500000000, A.D. 2027-Jun-19 00:00:00.0000, -5.437062105603873E+07, -4.222546342471421E+08, 3.111108938835289E+07,
2461582.500000000, A.D. 2027-Jun-26 00:00:00.0000, -4.371155923550115E+07, -4.236918823084929E+08, 2.911132435160622E+07,
2461589.500000000, A.D. 2027-Jul-03 00:00:00.0000, -3.302520214429537E+07, -4.248648420720736E+08, 2.709339860511060E+07,
2461596.500000000, A.D. 2027-Jul-10 00:00:00.0000, -2.231822545828929E+07, -4.257729177652377E+08, 2.505857950679618E+07,
2461603.500000000, A.D. 2027-Jul-17 00:00:00.0000, -1.159731229855621E+07, -4.264157052372804E+08, 2.300814516855681E+07,
2461610.500000000, A.D. 2027-Jul-24 00:00:00.0000, -8.691470425410448E+05, -4.267929922002771E+08, 2.094338322707146E+07,
2461617.500000000, A.D. 2027-Jul-31 00:00:00.0000, 9.859591420829255E+06, -4.269047581808900E+08, 1.886558955921906E+07,
2461624.500000000, A.D. 2027-Aug-07 00:00:00.0000, 2.058223677886219E+07, -4.267511730342878E+08, 1.677606705724123E+07,
2461631.500000000, A.D. 2027-Aug-14 00:00:00.0000, 3.129214041224572E+07, -4.263325942755024E+08, 1.467612465629226E+07,
2461638.500000000, A.D. 2027-Aug-21 00:00:00.0000, 4.198267514880200E+07, -4.256495665940585E+08, 1.256707628475359E+07,
2461645.500000000, A.D. 2027-Aug-28 00:00:00.0000, 5.264724107493631E+07, -4.247028223524233E+08, 1.045023952307624E+07,
2461652.500000000, A.D. 2027-Sep-04 00:00:00.0000, 6.327927221339195E+07, -4.234932805714806E+08, 8.326934286184877E+06,
2461659.500000000, A.D. 2027-Sep-11 00:00:00.0000, 7.387224266166206E+07, -4.220220450697520E+08, 6.198481605426252E+06,
2461666.500000000, A.D. 2027-Sep-18 00:00:00.0000, 8.441967231434472E+07, -4.202904024119199E+08, 4.066202446614236E+06,
2461673.500000000, A.D. 2027-Sep-25 00:00:00.0000, 9.491513238881914E+07, -4.182998197499097E+08, 1.931416538650453E+06,
2461680.500000000, A.D. 2027-Oct-02 00:00:00.0000, 1.053522508202904E+08, -4.160519425347267E+08, -2.045587902006209E+05,
2461687.500000000, A.D. 2027-Oct-09 00:00:00.0000, 1.157247175405587E+08, -4.135485921095559E+08, -2.340409769178927E+06,
2461694.500000000, A.D. 2027-Oct-16 00:00:00.0000, 1.260262896966843E+08, -4.107917632460080E+08, -4.474827343684644E+06,
2461701.500000000, A.D. 2027-Oct-23 00:00:00.0000, 1.362507970629620E+08, -4.077836216378233E+08, -6.606508358332485E+06,
2461708.500000000, A.D. 2027-Oct-30 00:00:00.0000, 1.463921480141021E+08, -4.045265007515188E+08, -8.734156747206658E+06,
2461715.500000000, A.D. 2027-Nov-06 00:00:00.0000, 1.564443348884581E+08, -4.010228969154294E+08, -1.085648453083944E+07,
2461722.500000000, A.D. 2027-Nov-13 00:00:00.0000, 1.664014367475312E+08, -3.972754647308297E+08, -1.297221260606185E+07,
2461729.500000000, A.D. 2027-Nov-20 00:00:00.0000, 1.762576224264935E+08, -3.932870149965476E+08, -1.508007177211675E+07,
2461736.500000000, A.D. 2027-Nov-27 00:00:00.0000, 1.860071554884490E+08, -3.890605121889407E+08, -1.717880389763170E+07,
2461743.500000000, A.D. 2027-Dec-04 00:00:00.0000, 1.956443990557364E+08, -3.845990705909821E+08, -1.926716296667609E+07,
2461750.500000000, A.D. 2027-Dec-11 00:00:00.0000, 2.051638199659957E+08, -3.799059500434039E+08, -2.134391603083193E+07,
2461757.500000000, A.D. 2027-Dec-18 00:00:00.0000, 2.145599925269094E+08, -3.749845516678538E+08, -2.340784411904021E+07,
2461764.500000000, A.D. 2027-Dec-25 00:00:00.0000, 2.238276020199372E+08, -3.698384135762123E+08, -2.545774311833920E+07,
2461771.500000000, A.D. 2028-Jan-01 00:00:00.0000, 2.329614479918046E+08, -3.644712065629691E+08, -2.749242462720713E+07,
$$EOE